     2              NAVIGATION DATA                         RINEX VERSION / TYPE
CCRINEXN V1.6.0 UX  CDDIS               11-SEP-16 15:33     PGM / RUN BY / DATE 
IGS BROADCAST EPHEMERIS FILE                                COMMENT             
    0.1211D-07  0.1490D-07 -0.5960D-07 -0.1192D-06          ION ALPHA           
    0.9626D+05  0.8192D+05 -0.1966D+06 -0.3932D+06          ION BETA            
    0.000000000000D+00 0.355271367880D-14   147456     1914 DELTA-UTC: A0,A1,T,W
    17                                                      LEAP SECONDS        
                                                            END OF HEADER       
29 16  9 10 19 59 44.0 0.651316251606D-03-0.113686837722D-11 0.000000000000D+00
    0.500000000000D+01-0.609375000000D+02 0.418803159118D-08 0.149611221860D+01
   -0.345334410667D-05 0.564455287531D-03 0.559166073799D-05 0.515375205421D+04
    0.590384000000D+06-0.130385160446D-07 0.124431479683D+01-0.931322574616D-08
    0.978246566776D+00 0.281562500000D+03 0.127721893021D+00-0.797926093968D-08
    0.364300888880D-10 0.100000000000D+01 0.191300000000D+04 0.000000000000D+00
    0.200000000000D+01 0.000000000000D+00-0.102445483208D-07 0.500000000000D+01
    0.583200000000D+06 0.400000000000D+01 0.000000000000D+00 0.000000000000D+00
 1 16  9 10 20  0  0.0 0.334940850735D-04 0.136424205266D-11 0.000000000000D+00
    0.106000000000D+03-0.399375000000D+02 0.439982612756D-08-0.260223295354D+01
   -0.225566327572D-05 0.586163881235D-02 0.992789864540D-05 0.515370913696D+04
    0.590400000000D+06-0.204890966415D-07 0.224209606275D+01-0.115483999252D-06
    0.965188267417D+00 0.190968750000D+03 0.545232096065D+00-0.787497088129D-08
    0.289654922433D-09 0.100000000000D+01 0.191300000000D+04 0.000000000000D+00
    0.200000000000D+01 0.000000000000D+00 0.512227416039D-08 0.106000000000D+03
    0.583200000000D+06 0.400000000000D+01 0.000000000000D+00 0.000000000000D+00
 2 16  9 10 20  0  0.0 0.554505735636D-03-0.477484718431D-11 0.000000000000D+00
    0.136000000000D+03-0.565312500000D+02 0.484091592929D-08-0.215639823828D+01
   -0.287778675556D-05 0.159348122543D-01 0.909157097340D-05 0.515363648033D+04
    0.590400000000D+06 0.249594449997D-06 0.219428220478D+01 0.130385160446D-07
    0.943974798099D+00 0.189687500000D+03-0.208752147452D+01-0.793425906517D-08
    0.375372778640D-09 0.100000000000D+01 0.191300000000D+04 0.000000000000D+00
    0.400000000000D+01 0.000000000000D+00-0.204890966415D-07 0.136000000000D+03
    0.583200000000D+06 0.400000000000D+01 0.000000000000D+00 0.000000000000D+00
 3 16  9 10 20  0  0.0-0.863317400217D-04-0.227373675443D-11 0.000000000000D+00
    0.920000000000D+02 0.693750000000D+01 0.479591405479D-08 0.290408669944D+01
    0.318512320519D-06 0.159050687216D-03 0.755861401558D-05 0.515362244606D+04
    0.590400000000D+06-0.502914190292D-07-0.299961485503D+01 0.279396772385D-07
    0.959814792299D+00 0.232656250000D+03 0.182829351439D+00-0.807926510525D-08
    0.126076680171D-09 0.100000000000D+01 0.191300000000D+04 0.000000000000D+00
    0.200000000000D+01 0.000000000000D+00 0.139698386192D-08 0.920000000000D+02
    0.583200000000D+06 0.400000000000D+01 0.000000000000D+00 0.000000000000D+00
 4 16  9 10 20  0  0.0-0.260706059635D-03-0.227373675443D-12 0.000000000000D+00
    0.590000000000D+02 0.333750000000D+02 0.524236122253D-08 0.646848113558D+00
    0.171922147274D-05 0.843974680174D-02 0.520981848240D-05 0.515367908859D+04
    0.590400000000D+06-0.931322574615D-07 0.165545201085D+00 0.689178705216D-07
    0.983335099100D+00 0.290843750000D+03 0.898889984547D+00-0.808319384033D-08
    0.589310261423D-10 0.100000000000D+01 0.191300000000D+04 0.000000000000D+00
    0.200000000000D+01 0.630000000000D+02-0.195577740669D-07 0.590000000000D+02
    0.589710000000D+06 0.400000000000D+01 0.000000000000D+00 0.000000000000D+00
 5 16  9 10 20  0  0.0-0.919774174690D-04 0.261479726760D-11 0.000000000000D+00
    0.160000000000D+02 0.700000000000D+01 0.518235872318D-08 0.322344782383D+00
    0.476837158203D-06 0.473629997578D-02 0.724196434021D-05 0.515358906555D+04
    0.590400000000D+06 0.372529029846D-08-0.301293790306D+01 0.931322574616D-08
    0.946850500055D+00 0.228843750000D+03 0.502451039091D+00-0.833820446254D-08
    0.889322758148D-10 0.100000000000D+01 0.191300000000D+04 0.000000000000D+00
    0.200000000000D+01 0.000000000000D+00-0.107102096081D-07 0.160000000000D+02
    0.583200000000D+06 0.400000000000D+01 0.000000000000D+00 0.000000000000D+00
 6 16  9 10 20  0  0.0 0.244605820626D-03 0.511590769747D-11 0.000000000000D+00
    0.810000000000D+02-0.538125000000D+02 0.446518599292D-08-0.216190824608D+01
   -0.266730785370D-05 0.219349400140D-03 0.968575477600D-05 0.515376701927D+04
    0.590400000000D+06-0.223517417908D-07 0.223368640356D+01 0.484287738800D-07
    0.964994795038D+00 0.195156250000D+03-0.152360357556D+01-0.791282960111D-08
    0.271082720255D-09 0.100000000000D+01 0.191300000000D+04 0.000000000000D+00
    0.200000000000D+01 0.000000000000D+00 0.419095158577D-08 0.810000000000D+02
    0.586320000000D+06 0.400000000000D+01 0.000000000000D+00 0.000000000000D+00
 7 16  9 10 20  0  0.0 0.428271945566D-03-0.295585778076D-11 0.000000000000D+00
    0.430000000000D+02 0.689062500000D+02 0.412910056504D-08 0.299914733274D+01
    0.342540442944D-05 0.999238353688D-02 0.891834497452D-05 0.515363673401D+04
    0.590400000000D+06-0.372529029846D-07-0.882456071940D+00-0.968575477600D-07
    0.965080368431D+00 0.209218750000D+03-0.263373829000D+01-0.777353808478D-08
   -0.121433629627D-09 0.100000000000D+01 0.191300000000D+04 0.000000000000D+00
    0.200000000000D+01 0.000000000000D+00-0.111758708954D-07 0.430000000000D+02
    0.583200000000D+06 0.400000000000D+01 0.000000000000D+00 0.000000000000D+00
 8 16  9 10 20  0  0.0-0.313105992973D-04-0.147792889038D-11 0.000000000000D+00
    0.600000000000D+02-0.561250000000D+02 0.451161649837D-08 0.338389377379D+00
   -0.296533107758D-05 0.170891662128D-02 0.569783151150D-05 0.515374728775D+04
    0.590400000000D+06-0.316649675369D-07 0.118041891657D+01-0.130385160446D-07
    0.964104910748D+00 0.267875000000D+03-0.102595826918D+01-0.823284293095D-08
    0.214294640518D-10 0.100000000000D+01 0.191300000000D+04 0.000000000000D+00
    0.200000000000D+01 0.000000000000D+00 0.512227416039D-08 0.600000000000D+02
    0.585450000000D+06 0.400000000000D+01 0.000000000000D+00 0.000000000000D+00
 9 16  9 10 20  0  0.0 0.203810166568D-03 0.727595761418D-11 0.000000000000D+00
    0.130000000000D+02 0.114687500000D+02 0.481770067657D-08-0.520288981473D+00
    0.564381480217D-06 0.513799604960D-03 0.770762562752D-05 0.515378663445D+04
    0.590400000000D+06 0.484287738800D-07-0.196125591498D+01 0.745058059692D-08
    0.954375305928D+00 0.226187500000D+03 0.204163636285D+01-0.815212528303D-08
   -0.369301097159D-09 0.100000000000D+01 0.191300000000D+04 0.000000000000D+00
    0.200000000000D+01 0.000000000000D+00 0.139698386192D-08 0.130000000000D+02
    0.583200000000D+06 0.400000000000D+01 0.000000000000D+00 0.000000000000D+00
11 16  9 10 20  0  0.0-0.663712620735D-03-0.147792889038D-11 0.000000000000D+00
    0.390000000000D+02-0.676875000000D+02 0.582059959419D-08 0.310492001252D+01
   -0.367127358913D-05 0.168001276907D-01 0.814162194729D-05 0.515368337440D+04
    0.590400000000D+06 0.279396772385D-06 0.185753593017D+01-0.316649675369D-07
    0.897619997567D+00 0.183468750000D+03 0.157081962523D+01-0.844356599413D-08
    0.137862885400D-09 0.100000000000D+01 0.191300000000D+04 0.000000000000D+00
    0.200000000000D+01 0.000000000000D+00-0.121071934700D-07 0.390000000000D+02
    0.583200000000D+06 0.400000000000D+01 0.000000000000D+00 0.000000000000D+00
12 16  9 10 20  0  0.0 0.388524960726D-03 0.341060513165D-12 0.000000000000D+00
    0.510000000000D+02 0.394687500000D+02 0.381015870840D-08 0.239967677354D+01
    0.199861824512D-05 0.604658049997D-02 0.503659248352D-05 0.515366211510D+04
    0.590400000000D+06-0.447034835815D-07 0.195595920064D+00-0.577419996262D-07
    0.990413559889D+00 0.296343750000D+03 0.788149559741D+00-0.786282751833D-08
    0.177150236161D-09 0.100000000000D+01 0.191300000000D+04 0.000000000000D+00
    0.200000000000D+01 0.000000000000D+00-0.125728547573D-07 0.510000000000D+02
    0.583200000000D+06 0.400000000000D+01 0.000000000000D+00 0.000000000000D+00
13 16  9 10 20  0  0.0-0.429470092058D-04-0.227373675443D-11 0.000000000000D+00
    0.990000000000D+02 0.500000000000D+01 0.436768193148D-08-0.230747885880D+01
    0.165775418282D-06 0.401381310075D-02 0.839866697788D-05 0.515368281555D+04
    0.590400000000D+06 0.502914190292D-07-0.183887605751D+01 0.484287738800D-07
    0.970609881318D+00 0.224281250000D+03 0.196198734476D+01-0.785604152138D-08
   -0.482162941165D-09 0.100000000000D+01 0.191300000000D+04 0.000000000000D+00
    0.280000000000D+01 0.000000000000D+00-0.111758708954D-07 0.990000000000D+02
    0.583218000000D+06 0.400000000000D+01 0.000000000000D+00 0.000000000000D+00
14 16  9 10 20  0  0.0-0.343904830515D-04-0.193267624127D-11 0.000000000000D+00
    0.540000000000D+02 0.946875000000D+01 0.462483562558D-08-0.931485964472D+00
    0.439584255218D-06 0.894624181092D-02 0.772252678871D-05 0.515405589867D+04
    0.590400000000D+06-0.558793544769D-07-0.187661456899D+01 0.221654772759D-06
    0.963123699408D+00 0.233500000000D+03-0.195198920377D+01-0.816855472152D-08
   -0.409659917100D-09 0.100000000000D+01 0.191300000000D+04 0.000000000000D+00
    0.200000000000D+01 0.000000000000D+00-0.931322574616D-08 0.540000000000D+02
    0.583200000000D+06 0.000000000000D+00 0.000000000000D+00 0.000000000000D+00
